{
  "type": "FeatureCollection",
  "features": [
    {
      "type": "Feature",
      "properties": {
        "norad_id": 40938,
        "name": "BEIDOU-3S IGSO-2S (C56)",
        "group": "beidou",
        "lat": 22.66527425706133,
        "lon": -78.25779902468038,
        "alt_km": 36022.835299770384,
        "timestamp": "2025-12-26T06:43:29.776840+00:00",
        "meta_object_name": "BEIDOU-3S IGSO-2S (C56)",
        "meta_object_id": "2015-053A",
        "meta_epoch": "2025-12-25T16:15:10.880064",
        "meta_mean_motion": 1.00267373,
        "meta_eccentricity": 0.006068,
        "meta_inclination": 49.4905,
        "meta_ra_of_asc_node": 260.8539,
        "meta_arg_of_pericenter": 188.4891,
        "meta_mean_anomaly": 344.6417,
        "meta_ephemeris_type": 0,
        "meta_classification_type": "U",
        "meta_norad_cat_id": 40938,
        "meta_element_set_no": 999,
        "meta_rev_at_epoch": 3761,
        "meta_bstar": 0,
        "meta_mean_motion_dot": -1.2e-06,
        "meta_mean_motion_ddot": 0,
        "tle_line1": "1 40938U 15053A   25359.67720926 -.00000120  00000+0  00000+0 0  9993",
        "tle_line2": "2 40938  49.4905 260.8539 0060680 188.4891 344.6417  1.00267373 37614"
      },
      "geometry": {
        "type": "Point",
        "coordinates": [
          -78.25779902468038,
          22.66527425706133
        ]
      }
    },
    {
      "type": "Feature",
      "properties": {
        "norad_id": 41434,
        "name": "BEIDOU-2 IGSO-6 (C13)",
        "group": "beidou",
        "lat": -54.46188143678157,
        "lon": -86.20687089585732,
        "alt_km": 35544.52214960489,
        "timestamp": "2025-12-26T06:43:29.776852+00:00",
        "meta_object_name": "BEIDOU-2 IGSO-6 (C13)",
        "meta_object_id": "2016-021A",
        "meta_epoch": "2025-12-25T02:21:14.682240",
        "meta_mean_motion": 1.00290736,
        "meta_eccentricity": 0.00608236,
        "meta_inclination": 59.9818,
        "meta_ra_of_asc_node": 39.7747,
        "meta_arg_of_pericenter": 230.5129,
        "meta_mean_anomaly": 312.5474,
        "meta_ephemeris_type": 0,
        "meta_classification_type": "U",
        "meta_norad_cat_id": 41434,
        "meta_element_set_no": 999,
        "meta_rev_at_epoch": 3573,
        "meta_bstar": 0,
        "meta_mean_motion_dot": -1.35e-06,
        "meta_mean_motion_ddot": 0,
        "tle_line1": "1 41434U 16021A   25359.09808660 -.00000135  00000+0  00000+0 0  9995",
        "tle_line2": "2 41434  59.9818  39.7747 0060823 230.5129 312.5474  1.00290736 35738"
      },
      "geometry": {
        "type": "Point",
        "coordinates": [
          -86.20687089585732,
          -54.46188143678157
        ]
      }
    },
    {
      "type": "Feature",
      "properties": {
        "norad_id": 41586,
        "name": "BEIDOU-2 G7 (C03)",
        "group": "beidou",
        "lat": -1.5396276318100746,
        "lon": -53.75273373439877,
        "alt_km": 35799.08822817705,
        "timestamp": "2025-12-26T06:43:29.776864+00:00",
        "meta_object_name": "BEIDOU-2 G7 (C03)",
        "meta_object_id": "2016-037A",
        "meta_epoch": "2025-12-25T22:09:08.222976",
        "meta_mean_motion": 1.00268204,
        "meta_eccentricity": 0.00051777,
        "meta_inclination": 1.7871,
        "meta_ra_of_asc_node": 67.9012,
        "meta_arg_of_pericenter": 0.645,
        "meta_mean_anomaly": 108.832,
        "meta_ephemeris_type": 0,
        "meta_classification_type": "U",
        "meta_norad_cat_id": 41586,
        "meta_element_set_no": 999,
        "meta_rev_at_epoch": 515,
        "meta_bstar": 0,
        "meta_mean_motion_dot": -3.32e-06,
        "meta_mean_motion_ddot": 0,
        "tle_line1": "1 41586U 16037A   25359.92301184 -.00000332  00000+0  00000+0 0  9990",
        "tle_line2": "2 41586   1.7871  67.9012 0005177   0.6450 108.8320  1.00268204  5156"
      },
      "geometry": {
        "type": "Point",
        "coordinates": [
          -53.75273373439877,
          -1.5396276318100746
        ]
      }
    },
    {
      "type": "Feature",
      "properties": {
        "norad_id": 43001,
        "name": "BEIDOU-3 M1 (C19)",
        "group": "beidou",
        "lat": 25.72283773486948,
        "lon": 87.35962564689733,
        "alt_km": 21524.488204526682,
        "timestamp": "2025-12-26T06:43:29.776877+00:00",
        "meta_object_name": "BEIDOU-3 M1 (C19)",
        "meta_object_id": "2017-069A",
        "meta_epoch": "2025-12-25T03:49:47.920224",
        "meta_mean_motion": 1.86231313,
        "meta_eccentricity": 0.0009789,
        "meta_inclination": 56.5365,
        "meta_ra_of_asc_node": 68.8241,
        "meta_arg_of_pericenter": 302.2681,
        "meta_mean_anomaly": 57.6912,
        "meta_ephemeris_type": 0,
        "meta_classification_type": "U",
        "meta_norad_cat_id": 43001,
        "meta_element_set_no": 999,
        "meta_rev_at_epoch": 5536,
        "meta_bstar": 0,
        "meta_mean_motion_dot": -2.5e-07,
        "meta_mean_motion_ddot": 0,
        "tle_line1": "1 43001U 17069A   25359.15958241 -.00000025  00000+0  00000+0 0  9996",
        "tle_line2": "2 43001  56.5365  68.8241 0009789 302.2681  57.6912  1.86231313 55361"
      },
      "geometry": {
        "type": "Point",
        "coordinates": [
          87.35962564689733,
          25.72283773486948
        ]
      }
    },
    {
      "type": "Feature",
      "properties": {
        "norad_id": 43002,
        "name": "BEIDOU-3 M2 (C20)",
        "group": "beidou",
        "lat": 52.80382939500338,
        "lon": 129.34501557545633,
        "alt_km": 21526.757471113164,
        "timestamp": "2025-12-26T06:43:29.776888+00:00",
        "meta_object_name": "BEIDOU-3 M2 (C20)",
        "meta_object_id": "2017-069B",
        "meta_epoch": "2025-12-25T15:14:16.903968",
        "meta_mean_motion": 1.86231039,
        "meta_eccentricity": 0.0006764,
        "meta_inclination": 56.5366,
        "meta_ra_of_asc_node": 68.8439,
        "meta_arg_of_pericenter": 327.6836,
        "meta_mean_anomaly": 32.3283,
        "meta_ephemeris_type": 0,
        "meta_classification_type": "U",
        "meta_norad_cat_id": 43002,
        "meta_element_set_no": 999,
        "meta_rev_at_epoch": 5536,
        "meta_bstar": 0,
        "meta_mean_motion_dot": -2.7e-07,
        "meta_mean_motion_ddot": 0,
        "tle_line1": "1 43002U 17069B   25359.63491787 -.00000027  00000+0  00000+0 0  9999",
        "tle_line2": "2 43002  56.5366  68.8439 0006764 327.6836  32.3283  1.86231039 55361"
      },
      "geometry": {
        "type": "Point",
        "coordinates": [
          129.34501557545633,
          52.80382939500338
        ]
      }
    },
    {
      "type": "Feature",
      "properties": {
        "norad_id": 43107,
        "name": "BEIDOU-3 M7 (C27)",
        "group": "beidou",
        "lat": -47.60425745064014,
        "lon": 179.7191417442051,
        "alt_km": 21541.49496310693,
        "timestamp": "2025-12-26T06:43:29.776900+00:00",
        "meta_object_name": "BEIDOU-3 M7 (C27)",
        "meta_object_id": "2018-003A",
        "meta_epoch": "2025-12-23T05:31:08.538816",
        "meta_mean_motion": 1.86232625,
        "meta_eccentricity": 0.0002961,
        "meta_inclination": 54.4874,
        "meta_ra_of_asc_node": 308.4506,
        "meta_arg_of_pericenter": 66.5422,
        "meta_mean_anomaly": 293.4915,
        "meta_ephemeris_type": 0,
        "meta_classification_type": "U",
        "meta_norad_cat_id": 43107,
        "meta_element_set_no": 999,
        "meta_rev_at_epoch": 5407,
        "meta_bstar": 0,
        "meta_mean_motion_dot": -5.5e-07,
        "meta_mean_motion_ddot": 0,
        "tle_line1": "1 43107U 18003A   25357.22995994 -.00000055  00000+0  00000+0 0  9997",
        "tle_line2": "2 43107  54.4874 308.4506 0002961  66.5422 293.4915  1.86232625 54072"
      },
      "geometry": {
        "type": "Point",
        "coordinates": [
          179.7191417442051,
          -47.60425745064014
        ]
      }
    },
    {
      "type": "Feature",
      "properties": {
        "norad_id": 43108,
        "name": "BEIDOU-3 M8 (C28)",
        "group": "beidou",
        "lat": -52.8002622592884,
        "lon": -121.76848739712264,
        "alt_km": 21520.966330133444,
        "timestamp": "2025-12-26T06:43:29.776912+00:00",
        "meta_object_name": "BEIDOU-3 M8 (C28)",
        "meta_object_id": "2018-003B",
        "meta_epoch": "2025-12-24T05:58:21.185184",
        "meta_mean_motion": 1.86231107,
        "meta_eccentricity": 0.00045887,
        "meta_inclination": 54.4794,
        "meta_ra_of_asc_node": 308.398,
        "meta_arg_of_pericenter": 279.3969,
        "meta_mean_anomaly": 80.5568,
        "meta_ephemeris_type": 0,
        "meta_classification_type": "U",
        "meta_norad_cat_id": 43108,
        "meta_element_set_no": 999,
        "meta_rev_at_epoch": 5410,
        "meta_bstar": 0,
        "meta_mean_motion_dot": -5.4e-07,
        "meta_mean_motion_ddot": 0,
        "tle_line1": "1 43108U 18003B   25358.24885631 -.00000054  00000+0  00000+0 0  9996",
        "tle_line2": "2 43108  54.4794 308.3980 0004588 279.3969  80.5568  1.86231107 54103"
      },
      "geometry": {
        "type": "Point",
        "coordinates": [
          -121.76848739712264,
          -52.8002622592884
        ]
      }
    }
  ]
}